NORAD_CAT_ID,OBJECT_NAME,OBJECT_TYPE,EPOCH,MEAN_MOTION,ECCENTRICITY,INCLINATION,RA_OF_ASC_NODE,ARG_OF_PERICENTER,MEAN_ANOMALY,BSTAR,MEAN_MOTION_DOT,MEAN_MOTION_DDOT,TLE_LINE0,TLE_LINE1,TLE_LINE2,SEMIMAJOR_AXIS,PERIOD,APOGEE,PERIGEE,DECAYED
53891.0,STARLINK-5041,PAYLOAD,2023-08-25 19:01:54,15.0883879,0.000131,53.218,165.1936,89.1228,270.9914,3.2597e-05,2.31e-06,0.0,0 STARLINK-5041,1 53891U 22119F   23237.79299564  .00000231  00000-0  32597-4 0  9995,2 53891  53.2180 165.1936 0001310  89.1228 270.9914 15.08838790 51336,6917.884,95.438,540.655,538.843,0.0
53891.0,STARLINK-5041,PAYLOAD,2023-08-26 04:34:13,15.08844037,0.0001384,53.2171,163.4085,83.7948,276.3202,7.1687e-05,8.53e-06,0.0,0 STARLINK-5041,1 53891U 22119F   23238.19043156  .00000853  00000-0  71687-4 0  9997,2 53891  53.2171 163.4085 0001384  83.7948 276.3202 15.08844037 51816,6917.868,95.437,540.69,538.776,0.0
53891.0,STARLINK-5041,PAYLOAD,2023-08-27 01:14:13,15.08847427,0.0001392,53.2166,159.5423,81.1962,278.9188,1.9384e-05,2.1e-07,0.0,0 STARLINK-5041,1 53891U 22119F   23239.05155027  .00000021  00000-0  19384-4 0  9997,2 53891  53.2166 159.5423 0001392  81.1962 278.9188 15.08847427 51940,6917.858,95.437,540.686,538.76,0.0
53891.0,STARLINK-5041,PAYLOAD,2023-08-28 01:05:01,15.08838178,0.0001589,53.2178,155.0831,108.19,251.9266,1.9008e-05,1.4e-07,0.0,0 STARLINK-5041,1 53891U 22119F   23240.04515496  .00000014  00000-0  19008-4 0  9993,2 53891  53.2178 155.0831 0001589 108.1900 251.9266 15.08838178 51678,6917.886,95.438,540.85,538.652,0.0
53891.0,STARLINK-5041,PAYLOAD,2023-08-28 04:15:47,15.08839742,0.0001653,53.2176,154.4858,110.5953,249.5216,4.403e-06,-2.18e-06,0.0,0 STARLINK-5041,1 53891U 22119F   23240.17763431 -.00000218  00000-0  44030-5 0  9992,2 53891  53.2176 154.4858 0001653 110.5953 249.5216 15.08839742 52111,6917.881,95.438,540.89,538.603,0.0
53891.0,STARLINK-5041,PAYLOAD,2023-08-29 10:28:07,15.08838265,0.0001468,53.2166,148.8398,109.1203,250.9949,4.7569e-05,4.69e-06,0.0,0 STARLINK-5041,1 53891U 22119F   23241.43619566  .00000469  00000-0  47569-4 0  9997,2 53891  53.2166 148.8398 0001468 109.1203 250.9949 15.08838265 51883,6917.886,95.438,540.766,538.735,0.0
53891.0,STARLINK-5041,PAYLOAD,2023-08-30 00:46:36,15.08833135,0.0001349,53.2169,146.166,104.3732,255.741,-3.0502e-05,-7.73e-06,0.0,0 STARLINK-5041,1 53891U 22119F   23242.03236496 -.00000773  00000-0 -30502-4 0  9990,2 53891  53.2169 146.1660 0001349 104.3732 255.7410 15.08833135 51978,6917.901,95.438,540.7,538.833,0.0
53891.0,STARLINK-5041,PAYLOAD,2023-08-30 10:18:55,15.0883513,0.0001196,53.2168,144.3782,90.5462,269.5667,5.5633e-06,-1.99e-06,0.0,0 STARLINK-5041,1 53891U 22119F   23242.42980338 -.00000199  00000-0  55633-5 0  9998,2 53891  53.2168 144.3782 0001196  90.5462 269.5667 15.08835130 52456,6917.895,95.438,540.588,538.933,0.0
53891.0,STARLINK-5041,PAYLOAD,2023-08-31 00:37:22,15.08848093,0.0001226,53.2166,141.7014,81.9785,278.1346,8.5167e-05,1.068e-05,0.0,0 STARLINK-5041,1 53891U 22119F   23243.02595445  .00001068  00000-0  85167-4 0  9995,2 53891  53.2166 141.7014 0001226  81.9785 278.1346 15.08848093 52125,6917.856,95.437,540.569,538.873,0.0
53891.0,STARLINK-5041,PAYLOAD,2023-08-31 22:52:40,15.08948595,7.08e-05,53.2158,137.5436,139.3814,220.7231,0.00044734,6.86e-05,0.0,0 STARLINK-5041,1 53891U 22119F   23243.95324850  .00006860  00000-0  44734-3 0  9996,2 53891  53.2158 137.5436 0000708 139.3814 220.7231 15.08948595 52261,6917.548,95.431,539.903,538.924,0.0
53891.0,STARLINK-5041,PAYLOAD,2023-09-01 10:00:29,15.08844943,0.0001255,53.2164,135.4563,80.2424,279.871,-0.00012438,-2.267e-05,0.0,0 STARLINK-5041,1 53891U 22119F   23244.41700434 -.00002267  00000-0 -12438-3 0  9999,2 53891  53.2164 135.4563 0001255  80.2424 279.8710 15.08844943 52332,6917.865,95.437,540.598,538.862,0.0
53891.0,STARLINK-5041,PAYLOAD,2023-09-02 01:54:19,15.08847159,0.0001263,53.216,132.4831,83.7982,276.3154,0.0001037,1.363e-05,0.0,0 STARLINK-5041,1 53891U 22119F   23245.07939529  .00001363  00000-0  10370-3 0  9998,2 53891  53.2160 132.4831 0001263  83.7982 276.3154 15.08847159 52436,6917.859,95.437,540.597,538.85,0.0
53891.0,STARLINK-5041,PAYLOAD,2023-09-02 09:51:15,15.08841979,0.0001379,53.2159,130.9985,87.6739,272.4411,7.5966e-05,9.21e-06,0.0,0 STARLINK-5041,1 53891U 22119F   23245.41059985  .00000921  00000-0  75966-4 0  9997,2 53891  53.2159 130.9985 0001379  87.6739 272.4411 15.08841979 52480,6917.874,95.437,540.693,538.785,0.0
53891.0,STARLINK-5041,PAYLOAD,2023-09-03 09:42:03,15.08840215,0.0001526,53.2166,126.5376,84.985,275.1316,-1.9463e-05,-5.98e-06,0.0,0 STARLINK-5041,1 53891U 22119F   23246.40420431 -.00000598  00000-0 -19463-4 0  9997,2 53891  53.2166 126.5376 0001526  84.9850 275.1316 15.08840215 52634,6917.88,95.438,540.8,538.689,0.0
53891.0,STARLINK-5041,PAYLOAD,2023-09-03 22:25:08,15.08854367,0.0001373,53.2174,124.1568,92.7065,267.4084,-0.00017689,-3.103e-05,0.0,0 STARLINK-5041,1 53891U 22119F   23246.93412115 -.00003103  00000-0 -17689-3 0  9997,2 53891  53.2174 124.1568 0001373  92.7065 267.4084 15.08854367 52713,6917.836,95.437,540.651,538.752,0.0
53891.0,STARLINK-5041,PAYLOAD,2023-09-04 15:54:23,15.08831973,0.0001404,53.217,120.8859,94.5362,265.5791,1.2731e-05,-8.5e-07,0.0,0 STARLINK-5041,1 53891U 22119F   23247.66276878 -.00000085  00000-0  12731-4 0  9991,2 53891  53.2170 120.8859 0001404  94.5362 265.5791 15.08831973 52824,6917.905,95.438,540.741,538.799,0.0
53891.0,STARLINK-5041,PAYLOAD,2023-09-05 01:26:42,15.08834215,0.000141,53.2163,119.1013,93.9397,266.1756,1.5936e-05,-3.4e-07,0.0,0 STARLINK-5041,1 53891U 22119F   23248.06020885 -.00000034  00000-0  15936-4 0  9995,2 53891  53.2163 119.1013 0001410  93.9397 266.1756 15.08834215 53301,6917.898,95.438,540.738,538.788,0.0
53891.0,STARLINK-5041,PAYLOAD,2023-09-06 01:17:28,15.08843625,0.0001272,53.2164,114.6418,87.3843,272.7295,0.00010621,1.403e-05,0.0,0 STARLINK-5041,1 53891U 22119F   23249.05380056  .00001403  00000-0  10621-3 0  9999,2 53891  53.2164 114.6418 0001272  87.3843 272.7295 15.08843625 53036,6917.869,95.437,540.614,538.854,0.0
53891.0,STARLINK-5041,PAYLOAD,2023-09-06 23:32:52,15.08837022,0.0001293,53.2171,110.4777,81.3871,278.7268,3.8836e-05,3.3e-06,0.0,0 STARLINK-5041,1 53891U 22119F   23249.98116867  .00000330  00000-0  38836-4 0  9995,2 53891  53.2171 110.4777 0001293  81.3871 278.7268 15.08837022 53179,6917.889,95.438,540.649,538.86,0.0
53891.0,STARLINK-5041,PAYLOAD,2023-09-07 15:26:44,15.08836097,0.0001608,53.2156,107.5041,87.037,273.0806,1.81e-05,0.0,0.0,0 STARLINK-5041,1 53891U 22119F   23250.64357014  .00000000  00000-0  18100-4 0  9997,2 53891  53.2156 107.5041 0001608  87.0370 273.0806 15.08836097 53694,6917.892,95.438,540.87,538.645,0.0
53891.0,STARLINK-5041,PAYLOAD,2023-09-08 00:59:03,15.08838066,0.0001555,53.2165,105.7196,83.5571,276.5598,3.0572e-05,1.99e-06,0.0,0 STARLINK-5041,1 53891U 22119F   23251.04100940  .00000199  00000-0  30572-4 0  9992,2 53891  53.2165 105.7196 0001555  83.5571 276.5598 15.08838066 53335,6917.886,95.438,540.827,538.676,0.0
53891.0,STARLINK-5041,PAYLOAD,2023-09-08 21:39:03,15.08841138,0.0001285,53.2172,101.8529,84.2887,275.8252,9.3086e-05,1.194e-05,0.0,0 STARLINK-5041,1 53891U 22119F   23251.90212532  .00001194  00000-0  93086-4 0  9993,2 53891  53.2172 101.8529 0001285  84.2887 275.8252 15.08841138 53881,6917.877,95.437,540.631,538.853,0.0
53891.0,STARLINK-5041,PAYLOAD,2023-09-09 07:11:22,15.08838774,0.0001251,53.2168,100.0688,86.5249,273.5886,6.6404e-05,7.69e-06,0.0,0 STARLINK-5041,1 53891U 22119F   23252.29956754  .00000769  00000-0  66404-4 0  9998,2 53891  53.2168 100.0688 0001251  86.5249 273.5886 15.08838774 53524,6917.884,95.438,540.615,538.884,0.0
53891.0,STARLINK-5041,PAYLOAD,2023-09-10 13:23:42,15.08828988,0.0001203,53.2163,94.4193,87.3702,272.7428,0.00018709,2.69e-05,0.0,0 STARLINK-5041,1 53891U 22119F   23253.55813313  .00002690  00000-0  18709-3 0  9990,2 53891  53.2163  94.4193 0001203  87.3702 272.7428 15.08828988 54133,6917.914,95.438,540.611,538.947,0.0
53891.0,STARLINK-5041,PAYLOAD,2023-09-10 19:45:14,15.08845605,0.000125,53.2162,93.23,86.536,273.5775,3.1257e-05,2.1e-06,0.0,0 STARLINK-5041,1 53891U 22119F   23253.82308563  .00000210  00000-0  31257-4 0  9996,2 53891  53.2162  93.2300 0001250  86.5360 273.5775 15.08845605 53758,6917.863,95.437,540.593,538.864,0.0
53891.0,STARLINK-5041,PAYLOAD,2023-09-11 13:14:29,15.0883619,0.0001286,53.2156,89.9598,84.8193,275.2946,3.7049e-05,3.02e-06,0.0,0 STARLINK-5041,1 53891U 22119F   23254.55173169  .00000302  00000-0  37049-4 0  9996,2 53891  53.2156  89.9598 0001286  84.8193 275.2946 15.08836190 54283,6917.892,95.438,540.647,538.867,0.0
53891.0,STARLINK-5041,PAYLOAD,2023-09-11 18:00:38,15.08838269,0.0001309,53.2161,89.0681,84.727,275.3871,5.2165e-05,5.42e-06,0.0,0 STARLINK-5041,1 53891U 22119F   23254.75045041  .00000542  00000-0  52165-4 0  9997,2 53891  53.2161  89.0681 0001309  84.7270 275.3871 15.08838269 53897,6917.886,95.438,540.656,538.845,0.0
53891.0,STARLINK-5041,PAYLOAD,2023-09-11 22:46:47,15.08850182,0.0001292,53.2166,88.1768,75.2482,284.8654,-3.314e-05,-8.15e-06,0.0,0 STARLINK-5041,1 53891U 22119F   23254.94916608 -.00000815  00000-0 -33140-4 0  9991,2 53891  53.2166  88.1768 0001292  75.2482 284.8654 15.08850182 53925,6917.849,95.437,540.608,538.82,0.0
53891.0,STARLINK-5041,PAYLOAD,2023-09-12 13:05:16,15.08837961,0.000159,53.2174,85.5003,93.5821,266.5353,-1.5599e-06,-3.13e-06,0.0,0 STARLINK-5041,1 53891U 22119F   23255.54533320 -.00000313  00000-0 -15599-5 0  9996,2 53891  53.2174  85.5003 0001590  93.5821 266.5353 15.08837961 54438,6917.887,95.438,540.852,538.652,0.0
53891.0,STARLINK-5041,PAYLOAD,2023-09-12 17:51:26,15.08838527,0.0001329,53.2175,84.6082,86.3281,273.7863,2.671e-05,1.37e-06,0.0,0 STARLINK-5041,1 53891U 22119F   23255.74405200  .00000137  00000-0  26710-4 0  9991,2 53891  53.2175  84.6082 0001329  86.3281 273.7863 15.08838527 54048,6917.885,95.438,540.669,538.831,0.0
